{
    "links": {
        "self": "http://www.neowsapp.com/rest/v1/neo/3305031?api_key=iIulBulltgU6a56xZRHN4H3l9WmuAYTsLGpBGhQ2"
    },
    "id": "3305031",
    "neo_reference_id": "3305031",
    "name": "(2005 WG57)",
    "designation": "2005 WG57",
    "nasa_jpl_url": "http://ssd.jpl.nasa.gov/sbdb.cgi?sstr=3305031",
    "absolute_magnitude_h": 23.6,
    "estimated_diameter": {
        "kilometers": {
            "estimated_diameter_min": 0.0506471459,
            "estimated_diameter_max": 0.1132504611
        },
        "meters": {
            "estimated_diameter_min": 50.6471458835,
            "estimated_diameter_max": 113.2504610618
        },
        "miles": {
            "estimated_diameter_min": 0.0314706677,
            "estimated_diameter_max": 0.0703705522
        },
        "feet": {
            "estimated_diameter_min": 166.1651821003,
            "estimated_diameter_max": 371.5566426699
        }
    },
    "is_potentially_hazardous_asteroid": false,
    "close_approach_data": [
        {
            "close_approach_date": "2005-11-21",
            "close_approach_date_full": "2005-Nov-21 09:28",
            "epoch_date_close_approach": 1132565280000,
            "relative_velocity": {
                "kilometers_per_second": "10.9409058427",
                "kilometers_per_hour": "39387.261033563",
                "miles_per_hour": "24473.7122794381"
            },
            "miss_distance": {
                "astronomical": "0.0356889101",
                "lunar": "13.8829860289",
                "kilometers": "5338984.933581487",
                "miles": "3317491.4036070406"
            },
            "orbiting_body": "Earth"
        }
    ],
    "orbital_data": {
        "orbit_id": "19",
        "orbit_determination_date": "2017-04-06 09:09:44",
        "first_observation_date": "2005-11-30",
        "last_observation_date": "2005-12-30",
        "data_arc_in_days": 30,
        "observations_used": 74,
        "orbit_uncertainty": "7",
        "minimum_orbit_intersection": ".00165626",
        "jupiter_tisserand_invariant": "3.919",
        "epoch_osculation": "2459000.5",
        "eccentricity": ".492024190880496",
        "semi_major_axis": "1.796551202523757",
        "inclination": ".4264672592741194",
        "ascending_node_longitude": "161.6259882556557",
        "orbital_period": "879.5445174671693",
        "perihelion_distance": ".9126045507266234",
        "perihelion_argument": "212.3086013246372",
        "aphelion_distance": "2.680497854320891",
        "perihelion_time": "2458938.744353785162",
        "mean_anomaly": "25.27675654367493",
        "mean_motion": ".4093027616574709",
        "equinox": "J2000",
        "orbit_class": {
            "orbit_class_type": "APO",
            "orbit_class_description": "Near-Earth asteroid orbits which cross the Earth’s orbit similar to that of 1862 Apollo",
            "orbit_class_range": "a (semi-major axis) > 1.0 AU; q (perihelion) < 1.017 AU"
        }
    },
    "is_sentry_object": false
}